NOAA 1                  
1 04793U 70106A   25317.09354366 -.00000041  00000+0  84416-5 0  9994
2 04793 101.3711 355.9669 0031721  51.0514   4.7277 12.54046591513601
NOAA 2 (ITOS-D)         
1 06235U 72082A   25317.33490623 -.00000016  00000+0  19303-3 0  9999
2 06235 102.0214 328.4510 0003937 220.1701 151.4837 12.53207188427915
NOAA 3                  
1 06920U 73086A   25317.27809183 -.00000019  00000+0  20385-3 0  9998
2 06920 102.2926 324.1400 0006494 161.0954 210.2853 12.40387858355138
NOAA 4                  
1 07529U 74089A   25317.50471073 -.00000021  00000+0  16292-3 0  9992
2 07529 102.0080 323.0124 0008811 248.0160 265.2888 12.53198385332507
NOAA 5                  
1 09057U 76077A   25317.47210278 -.00000006  00000+0  30660-3 0  9991
2 09057 102.2798 297.4683 0010099  14.9643 101.9517 12.37824058227787
TIROS N                 
1 11060U 78096A   25317.49175130  .00000460  00000+0  23915-3 0  9998
2 11060  98.4742 343.1247 0011122 143.1072 217.0872 14.19272244648150
NOAA 6                  
1 11416U 79057A   25317.48785824  .00000876  00000+0  32072-3 0  9992
2 11416  98.5873 343.2919 0010013 171.5642 188.5713 14.35320703420015
NOAA 7                  
1 12553U 81059A   25317.63854545  .00000207  00000+0  12349-3 0  9997
2 12553  98.8264  21.5445 0011810 160.2554 199.9080 14.17743656294207
NOAA 8                  
1 13923U 83022A   25317.45317301  .00000424  00000+0  18249-3 0  9991
2 13923  98.7385 324.8894 0015033 165.6844 194.4766 14.29706764220247
NOAA 9                  
1 15427U 84123A   25317.51227110  .00000330  00000+0  18734-3 0  9995
2 15427  99.1179 333.9627 0013823 238.8151 284.0629 14.16988223112879
NOAA 10                 
1 16969U 86073A   25317.48241225  .00000465  00000+0  20117-3 0  9999
2 16969  98.6894 306.2099 0010968 267.4065 259.6068 14.29082655 38605
NOAA 11                 
1 19531U 88089A   25317.81545457  .00000234  00000+0  14075-3 0  9997
2 19531  98.5925 265.8736 0010730 190.7085 169.3863 14.15787540917002
NOAA 12                 
1 21263U 91032A   25317.75515100  .00000367  00000+0  16992-3 0  9996
2 21263  98.6031 304.6737 0012686 300.4777  59.5150 14.26669255794241
NOAA 13                 
1 22739U 93050A   25317.85302242  .00000375  00000+0  22155-3 0  9996
2 22739  98.6769 263.9383 0010053  29.5280 330.6459 14.13587577662955
NOAA 14                 
1 23455U 94089A   25317.75676955  .00000242  00000+0  14742-3 0  9995
2 23455  98.4850 292.6118 0009259 349.7060  10.3924 14.14623365592749
NOAA 15                 
1 25338U 98030A   25317.80205045  .00000405  00000+0  18390-3 0  9995
2 25338  98.5250 339.0811 0009144 257.3141 102.7018 14.27053869430571
NOAA 16                 
1 26536U 00055A   25317.82268826  .00000278  00000+0  16830-3 0  9999
2 26536  98.4776 338.3464 0010114 193.8810 166.2087 14.13856767593299
NOAA 17                 
1 27453U 02032A   25317.84422887  .00000652  00000+0  29156-3 0  9997
2 27453  98.8353 276.3905 0010573 255.0958 104.9050 14.26107961216297
NOAA 18                 
1 28654U 05018A   25317.82263860  .00000336  00000+0  20109-3 0  9998
2 28654  98.8320  35.4477 0014863  46.2991 313.9410 14.13666897 55888
NOAA 19                 
1 33591U 09005A   25317.78367534  .00000199  00000+0  12978-3 0  9994
2 33591  98.9804  23.2368 0012784 280.1538  79.8192 14.13427459864053
SUOMI NPP               
1 37849U 11061A   25317.86480654  .00000321  00000+0  17318-3 0  9997
2 37849  98.7726 255.4727 0000741 177.3145 182.8035 14.19543619727897
NOAA 20 (JPSS-1)        
1 43013U 17073A   25317.80919919  .00000282  00000+0  15473-3 0  9997
2 43013  98.7552 254.4290 0001537 128.9315 231.1998 14.19514654413911
NOAA 21 (JPSS-2)        
1 54234U 22150A   25317.77376507  .00000328  00000+0  17662-3 0  9995
2 54234  98.7415 254.4500 0002727  90.1399 270.0090 14.19512584155989
